CCSDS_OMM_VERS = 2.0
CREATION_DATE  = 
ORIGINATOR     = 

OBJECT_NAME    = CZ-2D R/B
OBJECT_ID      = 2005-024B
CENTER_NAME    = EARTH
REF_FRAME      = TEME
TIME_SYSTEM    = UTC
MEAN_ELEMENT_THEORY = SGP/SGP4

EPOCH          = 2025-11-26T13:04:34.493952
MEAN_MOTION    = 15.52096507
ECCENTRICITY   = .00077072
INCLINATION    = 97.3647
RA_OF_ASC_NODE = 337.5811
ARG_OF_PERICENTER = 54.1349
MEAN_ANOMALY   = 306.0619

EPHEMERIS_TYPE = 0
CLASSIFICATION_TYPE = U
NORAD_CAT_ID   = 28738
ELEMENT_SET_NO = 999
REV_AT_EPOCH   = 12374
BSTAR          = .50679823E-3
MEAN_MOTION_DOT = .30604E-3
MEAN_MOTION_DDOT = 0

CCSDS_OMM_VERS = 2.0
CREATION_DATE  = 
ORIGINATOR     = 

OBJECT_NAME    = ALOS (DAICHI)
OBJECT_ID      = 2006-002A
CENTER_NAME    = EARTH
REF_FRAME      = TEME
TIME_SYSTEM    = UTC
MEAN_ELEMENT_THEORY = SGP/SGP4

EPOCH          = 2025-11-26T19:54:39.502368
MEAN_MOTION    = 14.69413562
ECCENTRICITY   = .0000722
INCLINATION    = 98.1072
RA_OF_ASC_NODE = 282.4322
ARG_OF_PERICENTER = 86.2881
MEAN_ANOMALY   = 273.8407

EPHEMERIS_TYPE = 0
CLASSIFICATION_TYPE = U
NORAD_CAT_ID   = 28931
ELEMENT_SET_NO = 999
REV_AT_EPOCH   = 5837
BSTAR          = .35616459E-3
MEAN_MOTION_DOT = .2058E-4
MEAN_MOTION_DDOT = 0

CCSDS_OMM_VERS = 2.0
CREATION_DATE  = 
ORIGINATOR     = 

OBJECT_NAME    = H-2A R/B
OBJECT_ID      = 2006-002B
CENTER_NAME    = EARTH
REF_FRAME      = TEME
TIME_SYSTEM    = UTC
MEAN_ELEMENT_THEORY = SGP/SGP4

EPOCH          = 2025-11-26T20:39:19.366848
MEAN_MOTION    = 15.14097040
ECCENTRICITY   = .00544843
INCLINATION    = 98.2310
RA_OF_ASC_NODE = 104.3193
ARG_OF_PERICENTER = 230.5529
MEAN_ANOMALY   = 129.0873

EPHEMERIS_TYPE = 0
CLASSIFICATION_TYPE = U
NORAD_CAT_ID   = 28932
ELEMENT_SET_NO = 999
REV_AT_EPOCH   = 7886
BSTAR          = .64248753E-3
MEAN_MOTION_DOT = .12065E-3
MEAN_MOTION_DDOT = 0

CCSDS_OMM_VERS = 2.0
CREATION_DATE  = 
ORIGINATOR     = 

OBJECT_NAME    = RESURS-DK 1
OBJECT_ID      = 2006-021A
CENTER_NAME    = EARTH
REF_FRAME      = TEME
TIME_SYSTEM    = UTC
MEAN_ELEMENT_THEORY = SGP/SGP4

EPOCH          = 2025-11-26T19:42:54.779040
MEAN_MOTION    = 15.12022300
ECCENTRICITY   = .00075542
INCLINATION    = 69.9317
RA_OF_ASC_NODE = 142.9701
ARG_OF_PERICENTER = 270.3468
MEAN_ANOMALY   = 89.6832

EPHEMERIS_TYPE = 0
CLASSIFICATION_TYPE = U
NORAD_CAT_ID   = 29228
ELEMENT_SET_NO = 999
REV_AT_EPOCH   = 7197
BSTAR          = .22672692E-3
MEAN_MOTION_DOT = .38E-4
MEAN_MOTION_DDOT = 0

CCSDS_OMM_VERS = 2.0
CREATION_DATE  = 
ORIGINATOR     = 

OBJECT_NAME    = CZ-4B R/B
OBJECT_ID      = 2006-046C
CENTER_NAME    = EARTH
REF_FRAME      = TEME
TIME_SYSTEM    = UTC
MEAN_ELEMENT_THEORY = SGP/SGP4

EPOCH          = 2025-11-26T15:52:07.211712
MEAN_MOTION    = 15.15634400
ECCENTRICITY   = .00326071
INCLINATION    = 97.5756
RA_OF_ASC_NODE = 10.8436
ARG_OF_PERICENTER = 264.1574
MEAN_ANOMALY   = 95.5941

EPHEMERIS_TYPE = 0
CLASSIFICATION_TYPE = U
NORAD_CAT_ID   = 29507
ELEMENT_SET_NO = 999
REV_AT_EPOCH   = 4443
BSTAR          = .35234856E-3
MEAN_MOTION_DOT = .6719E-4
MEAN_MOTION_DDOT = 0

CCSDS_OMM_VERS = 2.0
CREATION_DATE  = 
ORIGINATOR     = 

OBJECT_NAME    = CZ-2C R/B
OBJECT_ID      = 2007-010B
CENTER_NAME    = EARTH
REF_FRAME      = TEME
TIME_SYSTEM    = UTC
MEAN_ELEMENT_THEORY = SGP/SGP4

EPOCH          = 2025-11-26T20:48:12.890304
MEAN_MOTION    = 14.20199842
ECCENTRICITY   = .00581688
INCLINATION    = 98.3969
RA_OF_ASC_NODE = 84.3171
ARG_OF_PERICENTER = 232.4713
MEAN_ANOMALY   = 127.1170

EPHEMERIS_TYPE = 0
CLASSIFICATION_TYPE = U
NORAD_CAT_ID   = 31114
ELEMENT_SET_NO = 999
REV_AT_EPOCH   = 96512
BSTAR          = .11583885E-3
MEAN_MOTION_DOT = .21E-5
MEAN_MOTION_DDOT = 0

CCSDS_OMM_VERS = 2.0
CREATION_DATE  = 
ORIGINATOR     = 

OBJECT_NAME    = COSMO-SKYMED 1
OBJECT_ID      = 2007-023A
CENTER_NAME    = EARTH
REF_FRAME      = TEME
TIME_SYSTEM    = UTC
MEAN_ELEMENT_THEORY = SGP/SGP4

EPOCH          = 2025-11-26T23:59:25.917792
MEAN_MOTION    = 14.95591092
ECCENTRICITY   = .00014794
INCLINATION    = 97.8846
RA_OF_ASC_NODE = 156.2971
ARG_OF_PERICENTER = 91.0317
MEAN_ANOMALY   = 269.1073

EPHEMERIS_TYPE = 0
CLASSIFICATION_TYPE = U
NORAD_CAT_ID   = 31598
ELEMENT_SET_NO = 999
REV_AT_EPOCH   = 99954
BSTAR          = .45758684E-3
MEAN_MOTION_DOT = .5021E-4
MEAN_MOTION_DDOT = 0

CCSDS_OMM_VERS = 2.0
CREATION_DATE  = 
ORIGINATOR     = 

OBJECT_NAME    = COSMOS 2428
OBJECT_ID      = 2007-029A
CENTER_NAME    = EARTH
REF_FRAME      = TEME
TIME_SYSTEM    = UTC
MEAN_ELEMENT_THEORY = SGP/SGP4

EPOCH          = 2025-11-26T16:00:48.799872
MEAN_MOTION    = 14.12886691
ECCENTRICITY   = .00027859
INCLINATION    = 70.9374
RA_OF_ASC_NODE = 59.6242
ARG_OF_PERICENTER = 49.0814
MEAN_ANOMALY   = 311.0548

EPHEMERIS_TYPE = 0
CLASSIFICATION_TYPE = U
NORAD_CAT_ID   = 31792
ELEMENT_SET_NO = 999
REV_AT_EPOCH   = 94954
BSTAR          = -.15232298E-4
MEAN_MOTION_DOT = -.76E-6
MEAN_MOTION_DDOT = 0

CCSDS_OMM_VERS = 2.0
CREATION_DATE  = 
ORIGINATOR     = 

OBJECT_NAME    = SL-16 R/B
OBJECT_ID      = 2007-029B
CENTER_NAME    = EARTH
REF_FRAME      = TEME
TIME_SYSTEM    = UTC
MEAN_ELEMENT_THEORY = SGP/SGP4

EPOCH          = 2025-11-26T15:25:30.870624
MEAN_MOTION    = 14.14817141
ECCENTRICITY   = .00024081
INCLINATION    = 70.9778
RA_OF_ASC_NODE = 28.9947
ARG_OF_PERICENTER = 265.7972
MEAN_ANOMALY   = 256.7357

EPHEMERIS_TYPE = 0
CLASSIFICATION_TYPE = U
NORAD_CAT_ID   = 31793
ELEMENT_SET_NO = 999
REV_AT_EPOCH   = 95079
BSTAR          = .9877917E-5
MEAN_MOTION_DOT = -.29E-6
MEAN_MOTION_DDOT = 0

CCSDS_OMM_VERS = 2.0
CREATION_DATE  = 
ORIGINATOR     = 

OBJECT_NAME    = KORONAS-FOTON
OBJECT_ID      = 2009-003A
CENTER_NAME    = EARTH
REF_FRAME      = TEME
TIME_SYSTEM    = UTC
MEAN_ELEMENT_THEORY = SGP/SGP4

EPOCH          = 2025-11-26T15:35:35.064096
MEAN_MOTION    = 15.40678202
ECCENTRICITY   = .00121313
INCLINATION    = 82.4324
RA_OF_ASC_NODE = 22.7703
ARG_OF_PERICENTER = 161.3370
MEAN_ANOMALY   = 198.8324

EPHEMERIS_TYPE = 0
CLASSIFICATION_TYPE = U
NORAD_CAT_ID   = 33504
ELEMENT_SET_NO = 999
REV_AT_EPOCH   = 92986
BSTAR          = .34908356E-3
MEAN_MOTION_DOT = .14317E-3
MEAN_MOTION_DDOT = 0

CCSDS_OMM_VERS = 2.0
CREATION_DATE  = 
ORIGINATOR     = 

OBJECT_NAME    = CZ-2C R/B
OBJECT_ID      = 2011-030B
CENTER_NAME    = EARTH
REF_FRAME      = TEME
TIME_SYSTEM    = UTC
MEAN_ELEMENT_THEORY = SGP/SGP4

EPOCH          = 2025-11-26T20:15:18.132768
MEAN_MOTION    = 14.80818271
ECCENTRICITY   = .005218
INCLINATION    = 97.8394
RA_OF_ASC_NODE = 285.3056
ARG_OF_PERICENTER = 326.6288
MEAN_ANOMALY   = 62.2807

EPHEMERIS_TYPE = 0
CLASSIFICATION_TYPE = U
NORAD_CAT_ID   = 37731
ELEMENT_SET_NO = 999
REV_AT_EPOCH   = 77487
BSTAR          = .28980251E-3
MEAN_MOTION_DOT = .2233E-4
MEAN_MOTION_DDOT = 0

CCSDS_OMM_VERS = 2.0
CREATION_DATE  = 
ORIGINATOR     = 

OBJECT_NAME    = H-2A R/B
OBJECT_ID      = 2012-025E
CENTER_NAME    = EARTH
REF_FRAME      = TEME
TIME_SYSTEM    = UTC
MEAN_ELEMENT_THEORY = SGP/SGP4

EPOCH          = 2025-11-26T21:42:21.217536
MEAN_MOTION    = 14.94291358
ECCENTRICITY   = .00437656
INCLINATION    = 98.4582
RA_OF_ASC_NODE = 284.9180
ARG_OF_PERICENTER = 289.9977
MEAN_ANOMALY   = 69.6531

EPHEMERIS_TYPE = 0
CLASSIFICATION_TYPE = U
NORAD_CAT_ID   = 38341
ELEMENT_SET_NO = 999
REV_AT_EPOCH   = 73286
BSTAR          = .41851608E-3
MEAN_MOTION_DOT = .4511E-4
MEAN_MOTION_DDOT = 0

