CZ-2D R/B               
1 28738U 05024B   25330.54484368  .00030604  00000+0  50680-3 0  9998
2 28738  97.3647 337.5811 0007707  54.1349 306.0619 15.52096507123743
ALOS (DAICHI)           
1 28931U 06002A   25330.82962387  .00002058  00000+0  35616-3 0  9997
2 28931  98.1072 282.4322 0000722  86.2881 273.8407 14.69413562 58374
H-2A R/B                
1 28932U 06002B   25330.86064082  .00012065  00000+0  64249-3 0  9990
2 28932  98.2310 104.3193 0054484 230.5529 129.0873 15.14097040 78861
RESURS-DK 1             
1 29228U 06021A   25330.82146735  .00003800  00000+0  22673-3 0  9994
2 29228  69.9317 142.9701 0007554 270.3468  89.6832 15.12022300 71971
CZ-4B R/B               
1 29507U 06046C   25330.66119458  .00006719  00000+0  35235-3 0  9995
2 29507  97.5756  10.8436 0032607 264.1574  95.5941 15.15634400 44430
CZ-2C R/B               
1 31114U 07010B   25330.86681586  .00000210  00000+0  11584-3 0  9993
2 31114  98.3969  84.3171 0058168 232.4713 127.1170 14.20199842965122
COSMO-SKYMED 1          
1 31598U 07023A   25330.99960553  .00005021  00000+0  45759-3 0  9997
2 31598  97.8846 156.2971 0001479  91.0317 269.1073 14.95591092999542
COSMOS 2428             
1 31792U 07029A   25330.66723148 -.00000076  00000+0 -15232-4 0  9991
2 31792  70.9374  59.6242 0002785  49.0814 311.0548 14.12886691949549
SL-16 R/B               
1 31793U 07029B   25330.64271841 -.00000029  00000+0  98779-5 0  9993
2 31793  70.9778  28.9947 0002408 265.7972 256.7357 14.14817141950791
KORONAS-FOTON           
1 33504U 09003A   25330.64971139  .00014317  00000+0  34908-3 0  9992
2 33504  82.4324  22.7703 0012131 161.3370 198.8324 15.40678202929864
CZ-2C R/B               
1 37731U 11030B   25330.84395987  .00002233  00000+0  28980-3 0  9991
2 37731  97.8394 285.3056 0052180 326.6288  62.2807 14.80818271774871
H-2A R/B                
1 38341U 12025E   25330.90441224  .00004511  00000+0  41852-3 0  9991
2 38341  98.4582 284.9180 0043765 289.9977  69.6531 14.94291358732867
